{
  "type": "FeatureCollection",
  "features": [
    {
      "type": "Feature",
      "properties": {
        "norad_id": 66496,
        "name": "STARLINK-35909",
        "group": "last-30-days",
        "lat": -9.772375968789218,
        "lon": -51.274412338678026,
        "alt_km": 415.23667450959147,
        "timestamp": "2025-12-13T22:39:28.443198+00:00",
        "meta_object_name": "STARLINK-35909",
        "meta_object_id": "2025-263M",
        "meta_epoch": "2025-12-13T01:43:42.940128",
        "meta_mean_motion": 15.50640879,
        "meta_eccentricity": 0.00011835,
        "meta_inclination": 42.9987,
        "meta_ra_of_asc_node": 123.1774,
        "meta_arg_of_pericenter": 286.9645,
        "meta_mean_anomaly": 73.1085,
        "meta_ephemeris_type": 0,
        "meta_classification_type": "U",
        "meta_norad_cat_id": 66496,
        "meta_element_set_no": 999,
        "meta_rev_at_epoch": 561,
        "meta_bstar": 0.0022351404,
        "meta_mean_motion_dot": 0.00133333,
        "meta_mean_motion_ddot": 0,
        "tle_line1": "1 66496U 25263M   25347.07202477  .00133333  00000+0  22351-2 0  9999",
        "tle_line2": "2 66496  42.9987 123.1774 0001183 286.9645  73.1085 15.50640879  5611"
      },
      "geometry": {
        "type": "Point",
        "coordinates": [
          -51.274412338678026,
          -9.772375968789218
        ]
      }
    },
    {
      "type": "Feature",
      "properties": {
        "norad_id": 66497,
        "name": "STARLINK-35899",
        "group": "last-30-days",
        "lat": -11.107846698164224,
        "lon": -49.77059935049667,
        "alt_km": 415.36290085065684,
        "timestamp": "2025-12-13T22:39:28.443209+00:00",
        "meta_object_name": "STARLINK-35899",
        "meta_object_id": "2025-263N",
        "meta_epoch": "2025-12-12T17:59:25.949760",
        "meta_mean_motion": 15.50614255,
        "meta_eccentricity": 0.00016472,
        "meta_inclination": 42.9982,
        "meta_ra_of_asc_node": 125.0558,
        "meta_arg_of_pericenter": 278.6423,
        "meta_mean_anomaly": 81.4251,
        "meta_ephemeris_type": 0,
        "meta_classification_type": "U",
        "meta_norad_cat_id": 66497,
        "meta_element_set_no": 999,
        "meta_rev_at_epoch": 556,
        "meta_bstar": 0.0016088279,
        "meta_mean_motion_dot": 0.00095318,
        "meta_mean_motion_ddot": 0,
        "tle_line1": "1 66497U 25263N   25346.74960590  .00095318  00000+0  16088-2 0  9990",
        "tle_line2": "2 66497  42.9982 125.0558 0001647 278.6423  81.4251 15.50614255  5565"
      },
      "geometry": {
        "type": "Point",
        "coordinates": [
          -49.77059935049667,
          -11.107846698164224
        ]
      }
    },
    {
      "type": "Feature",
      "properties": {
        "norad_id": 66498,
        "name": "STARLINK-35907",
        "group": "last-30-days",
        "lat": 39.462968999429016,
        "lon": -179.56115030160151,
        "alt_km": 438.78812590635243,
        "timestamp": "2025-12-13T22:39:28.443220+00:00",
        "meta_object_name": "STARLINK-35907",
        "meta_object_id": "2025-263P",
        "meta_epoch": "2025-12-13T06:00:02.000160",
        "meta_mean_motion": 15.40696682,
        "meta_eccentricity": 0.00014879,
        "meta_inclination": 43.0001,
        "meta_ra_of_asc_node": 122.3776,
        "meta_arg_of_pericenter": 265.1397,
        "meta_mean_anomaly": 269.543,
        "meta_ephemeris_type": 0,
        "meta_classification_type": "U",
        "meta_norad_cat_id": 66498,
        "meta_element_set_no": 999,
        "meta_rev_at_epoch": 571,
        "meta_bstar": -0.00038073565,
        "meta_mean_motion_dot": -0.00016172,
        "meta_mean_motion_ddot": 0,
        "tle_line1": "1 66498U 25263P   25347.25002315 -.00016172  00000+0 -38074-3 0  9993",
        "tle_line2": "2 66498  43.0001 122.3776 0001487 265.1397 269.5430 15.40696682  5713"
      },
      "geometry": {
        "type": "Point",
        "coordinates": [
          -179.56115030160151,
          39.462968999429016
        ]
      }
    },
    {
      "type": "Feature",
      "properties": {
        "norad_id": 66499,
        "name": "STARLINK-35816",
        "group": "last-30-days",
        "lat": 40.91976370803848,
        "lon": -130.1844997700143,
        "alt_km": 438.42658114739515,
        "timestamp": "2025-12-13T22:39:28.443230+00:00",
        "meta_object_name": "STARLINK-35816",
        "meta_object_id": "2025-263Q",
        "meta_epoch": "2025-12-13T06:00:02.000160",
        "meta_mean_motion": 15.40634413,
        "meta_eccentricity": 0.00015874,
        "meta_inclination": 42.9998,
        "meta_ra_of_asc_node": 122.2865,
        "meta_arg_of_pericenter": 281.8711,
        "meta_mean_anomaly": 290.0447,
        "meta_ephemeris_type": 0,
        "meta_classification_type": "U",
        "meta_norad_cat_id": 66499,
        "meta_element_set_no": 999,
        "meta_rev_at_epoch": 571,
        "meta_bstar": 0.0021383694,
        "meta_mean_motion_dot": 0.00089884,
        "meta_mean_motion_ddot": 0,
        "tle_line1": "1 66499U 25263Q   25347.25002315  .00089884  00000+0  21384-2 0  9997",
        "tle_line2": "2 66499  42.9998 122.2865 0001587 281.8711 290.0447 15.40634413  5712"
      },
      "geometry": {
        "type": "Point",
        "coordinates": [
          -130.1844997700143,
          40.91976370803848
        ]
      }
    },
    {
      "type": "Feature",
      "properties": {
        "norad_id": 66500,
        "name": "STARLINK-35894",
        "group": "last-30-days",
        "lat": 23.792383086245685,
        "lon": 146.69476323211254,
        "alt_km": 453.218290234463,
        "timestamp": "2025-12-13T22:39:28.443240+00:00",
        "meta_object_name": "STARLINK-35894",
        "meta_object_id": "2025-263R",
        "meta_epoch": "2025-12-13T06:00:02.000160",
        "meta_mean_motion": 15.39328514,
        "meta_eccentricity": 0.0001158,
        "meta_inclination": 42.9997,
        "meta_ra_of_asc_node": 122.4402,
        "meta_arg_of_pericenter": 254.4824,
        "meta_mean_anomaly": 254.5198,
        "meta_ephemeris_type": 0,
        "meta_classification_type": "U",
        "meta_norad_cat_id": 66500,
        "meta_element_set_no": 999,
        "meta_rev_at_epoch": 571,
        "meta_bstar": -0.050510667,
        "meta_mean_motion_dot": -0.01815159,
        "meta_mean_motion_ddot": 0,
        "tle_line1": "1 66500U 25263R   25347.25002315 -.01815159  00000+0 -50511-1 0  9998",
        "tle_line2": "2 66500  42.9997 122.4402 0001158 254.4824 254.5198 15.39328514  5716"
      },
      "geometry": {
        "type": "Point",
        "coordinates": [
          146.69476323211254,
          23.792383086245685
        ]
      }
    },
    {
      "type": "Feature",
      "properties": {
        "norad_id": 66501,
        "name": "STARLINK-35897",
        "group": "last-30-days",
        "lat": 30.908473386077436,
        "lon": -101.750196215784,
        "alt_km": 439.74706805421556,
        "timestamp": "2025-12-13T22:39:28.443250+00:00",
        "meta_object_name": "STARLINK-35897",
        "meta_object_id": "2025-263S",
        "meta_epoch": "2025-12-13T06:00:02.000160",
        "meta_mean_motion": 15.40602639,
        "meta_eccentricity": 0.00016679,
        "meta_inclination": 42.9999,
        "meta_ra_of_asc_node": 122.2267,
        "meta_arg_of_pericenter": 265.3185,
        "meta_mean_anomaly": 331.6105,
        "meta_ephemeris_type": 0,
        "meta_classification_type": "U",
        "meta_norad_cat_id": 66501,
        "meta_element_set_no": 999,
        "meta_rev_at_epoch": 571,
        "meta_bstar": 0.0029249178,
        "meta_mean_motion_dot": 0.00123474,
        "meta_mean_motion_ddot": 0,
        "tle_line1": "1 66501U 25263S   25347.25002315  .00123474  00000+0  29249-2 0  9993",
        "tle_line2": "2 66501  42.9999 122.2267 0001667 265.3185 331.6105 15.40602639  5712"
      },
      "geometry": {
        "type": "Point",
        "coordinates": [
          -101.750196215784,
          30.908473386077436
        ]
      }
    },
    {
      "type": "Feature",
      "properties": {
        "norad_id": 66502,
        "name": "STARLINK-35922",
        "group": "last-30-days",
        "lat": -19.8495070264817,
        "lon": -39.1740671539703,
        "alt_km": 415.8749352067671,
        "timestamp": "2025-12-13T22:39:28.443260+00:00",
        "meta_object_name": "STARLINK-35922",
        "meta_object_id": "2025-263T",
        "meta_epoch": "2025-12-12T17:55:58.795392",
        "meta_mean_motion": 15.50609171,
        "meta_eccentricity": 0.00015478,
        "meta_inclination": 42.999,
        "meta_ra_of_asc_node": 125.0365,
        "meta_arg_of_pericenter": 278.8468,
        "meta_mean_anomaly": 81.2217,
        "meta_ephemeris_type": 0,
        "meta_classification_type": "U",
        "meta_norad_cat_id": 66502,
        "meta_element_set_no": 999,
        "meta_rev_at_epoch": 556,
        "meta_bstar": 0.0018757972,
        "meta_mean_motion_dot": 0.00111401,
        "meta_mean_motion_ddot": 0,
        "tle_line1": "1 66502U 25263T   25346.74720828  .00111401  00000+0  18758-2 0  9993",
        "tle_line2": "2 66502  42.9990 125.0365 0001547 278.8468  81.2217 15.50609171  5568"
      },
      "geometry": {
        "type": "Point",
        "coordinates": [
          -39.1740671539703,
          -19.8495070264817
        ]
      }
    }
  ]
}